RADUGA 1 [-]            
1 08513U 75123A   15109.57837043 -.00000210  00000-0  00000+0 0  9991
2 08513  11.7012 321.1770 0009474 156.3016  21.5061  1.00288334154068
RADUGA 2 [-]            
1 09416U 76092A   15113.69621303 -.00000155  00000-0  00000+0 0  9996
2 09416  12.2727 323.0901 0025409 269.3348 308.4856  1.00247271 88505
RADUGA 3 [-]            
1 10159U 77071A   15119.98563450  .00000000  00000-0  10000-3 0  9999
2 10159  12.7683 325.3288 0011728 171.6328 188.3202  1.00248203136276
RADUGA 4 [-]            
1 10987U 78073A   15120.18115787  .00000000  00000-0  10000-3 0  9991
2 10987  13.2330 328.1735 0009646 258.4653 101.3668  1.00224340 78811
RADUGA 5 [-]            
1 11343U 79035A   15117.84566986 -.00000021  00000-0  00000+0 0  9996
2 11343  13.5617 330.4109 0005904 130.3345 123.5685  1.00270670 88520
RADUGA 6 [-]            
1 11708U 80016A   15118.97982003  .00000110  00000-0  00000+0 0  9997
2 11708  13.7595 332.8031 0005824 178.6040 100.0803  1.00258617 81375
RADUGA 7 [-]            
1 12003U 80081A   15119.17843546 -.00000269  00000-0  00000+0 0  9995
2 12003  13.8331 334.3803 0012109 199.3668  72.6688  1.00236812 82635
RADUGA 8 [-]            
1 12351U 81027A   15119.93409697  .00000000  00000-0  10000-3 0  9998
2 12351  14.1108 335.2624 0089115 153.2601 207.1511  1.00352963 81719
RADUGA 9 [-]            
1 12618U 81069A   15113.62160965  .00000098  00000-0  00000+0 0  9994
2 12618  14.1768 337.3630 0003028 135.2641   3.8746  1.00316448 87490
RADUGA 10 [-]           
1 12897U 81102A   15114.92496894 -.00000069  00000-0  00000+0 0  9997
2 12897  14.2029 338.0491 0007395 141.3844 135.6886  1.00252347 76570
RADUGA 11 [-]           
1 13669U 82113A   15117.88920997 -.00000189  00000-0  00000+0 0  9995
2 13669  15.3917 348.4841 0043625 181.5810 349.9796  0.97709587 81771
RADUGA 12 [-]           
1 13974U 83028A   15119.83441341 -.00000207  00000-0  00000+0 0  9999
2 13974  14.6568 346.1820 0002225 160.4978  96.0839  1.00267847128603
RADUGA 13 [-]           
1 14307U 83088A   15118.41151100 -.00000055  00000-0  00000+0 0  9991
2 14307  15.4705 350.2739 0013106 326.1841 318.7336  0.98172735 79003
RADUGA 14 [-]           
1 14725U 84016A   15111.97303391 -.00000028  00000-0  00000+0 0  9992
2 14725  14.5809 349.2267 0004100 121.2592 153.4355  1.00264840 77227
RADUGA 15 [-]           
1 15057U 84063A   15119.28749219  .00000000  00000-0  10000-3 0  9992
2 15057  14.6105 350.1415 0005057 127.4429 232.5675  1.00212566100309
RADUGA 16 [-]           
1 15946U 85070A   15119.84087439  .00000000  00000-0  10000-3 0  9999
2 15946  14.6746 354.2587 0003222 168.1282 191.8449  1.00308048 81443
RADUGA 17 [-]           
1 16250U 85107A   15119.51290788  .00000000  00000-0  10000-3 0  9996
2 16250  14.6815 355.3925 0012962 125.2932 234.7925  1.00158475111069
RADUGA 18 [-]           
1 16497U 86007A   15118.50665696  .00000014  00000-0  00000+0 0  9991
2 16497  15.2903 357.5610 0074803  95.3505 191.2065  0.98810528105714
RADUGA 19 [-]           
1 17046U 86082A   15114.84086752 -.00000145  00000-0  00000+0 0  9994
2 17046  15.3550   0.9890 0012275  95.2636  79.3960  0.98460978102865
RADUGA 20 [-]           
1 17611U 87028A   15113.84154552 -.00000122  00000-0  00000+0 0  9991
2 17611  17.0476   4.5171 0027502  74.2358 114.7740  0.95962347 99216
RADUGA 21 [-]           
1 18631U 87100A   15119.37694368 -.00000302  00000-0  00000+0 0  9993
2 18631  15.2406   3.1654 0003853 137.6569 148.0529  1.00218985100301
RADUGA 22 [-]           
1 19596U 88095A   15113.48083808 -.00000241  00000-0  00000+0 0  9997
2 19596  14.8226   6.7085 0006380 101.8502   0.5026  1.00384267 80861
RADUGA 23 [-]           
1 19928U 89030A   15120.23127942  .00000000  00000-0  10000-3 0  9992
2 19928  14.7858   8.2890 0022046  97.7843 262.4286  1.00359922 94074
RADUGA-1 1 [-]          
1 20083U 89048A   15115.01117631 -.00000054  00000-0  00000+0 0  9994
2 20083  15.2568  10.7907 0018885  52.9964 189.7931  0.98707859 91079
RADUGA 24 [-]           
1 20367U 89098A   15113.98434725 -.00000355  00000-0  00000+0 0  9998
2 20367  15.0896  11.0597 0004267 156.5171 142.6651  1.00255893 92208
RADUGA 25 [-]           
1 20499U 90016A   15118.37041978 -.00000266  00000-0  00000+0 0  9999
2 20499  14.8061  11.3588 0003527 130.0386 132.5356  1.00179594 92158
RADUGA 26 [-]           
1 21016U 90112A   15117.04346196 -.00000077  00000-0  00000+0 0  9995
2 21016  14.7696  14.4931 0003139  48.1736 239.3565  1.00223705 89439
RADUGA-1 2 [-]          
1 21038U 90116A   15113.90458541 -.00000262  00000-0  00000+0 0  9998
2 21038  14.7957  14.6534 0004854  56.7366 197.0693  1.00228167 89072
RADUGA 27 [-]           
1 21132U 91014A   15118.60623054 -.00000364  00000-0  00000+0 0  9999
2 21132  15.3121  15.0206 0002492  99.5779  87.3221  1.00294732 88525
RADUGA 28 [-]           
1 21821U 91087A   15120.21947434  .00000000  00000-0  10000-3 0  9996
2 21821  14.7122  17.9441 0006371  80.6414 279.3877  1.00179592 85571
RADUGA 29 [-]           
1 22557U 93013A   15119.37525297  .00000000  00000-0  10000-3 0  9998
2 22557  14.4528  22.1165 0004012  64.1710 295.8245  1.00201560 80907
RADUGA 30 [-]           
1 22836U 93062A   15120.25857338  .00000000  00000-0  10000-3 0  9995
2 22836  14.2899  23.8625 0004631 181.8614 178.0883  1.00282091 78996
RADUGA-1 3 [-]          
1 22981U 94008A   15120.26220549  .00000000  00000-0  10000-3 0  9996
2 22981  14.2385  25.1009 0002976 111.4528 248.5293  1.00326906 77734
RADUGA 31 [-]           
1 23010U 94012A   15119.82257549  .00000099  00000-0  00000+0 0  9998
2 23010  14.2068  25.0618 0002780  79.7468  96.5400  1.00241412 77574
RADUGA 32 [-]           
1 23448U 94087A   15120.27004134 -.00000004  00000-0  10000-3 0  9998
2 23448  13.9028  27.5747 0008763 155.8577 204.1305  1.00279342 92161
RADUGA-1 4 [-]          
1 25642U 99010A   15119.97272646  .00000133  00000-0  00000+0 0  9994
2 25642  13.1711  40.2980 0004478 154.9585  47.3861  1.00277620 59196
RADUGA-1 5 [-]          
1 26477U 00049A   15120.30575845  .00000000  00000-0  10000-3 0  9999
2 26477  10.8004  41.5343 0001615  72.0826 287.8640  1.00200542 53714
RADUGA-1 6 [-]          
1 26936U 01045A   15119.82297950 -.00000036  00000-0  00000+0 0  9994
2 26936  10.3235  46.5283 0018246 102.0985  67.4746  0.97743343 48822
RADUGA-1 7 [-]          
1 28194U 04010A   15120.03546897  .00000092  00000-0  00000+0 0  9990
2 28194   8.4795  54.1322 0003870 112.5800  80.1080  1.00272280 40622
RADUGA-1M 1 [-]         
1 32373U 07058A   15120.28518535  .00000000  00000-0  10000-3 0  9998
2 32373   1.5201  76.1781 0001529 336.3097  23.7686  0.99394184 27904
RADUGA-1 8 [+]          
1 34264U 09010A   15120.34350339 -.00000170  00000-0  10000-3 0  9991
2 34264   4.2055  76.8239 0009657 298.2411 314.7379  0.99832246 22579
RADUGA-1M 2 [+]         
1 36358U 10002A   15119.84669120 -.00000194  00000-0  10000-3 0  9990
2 36358   0.0152 260.7654 0003072 161.2128 185.3023  1.00272109 19237
RADUGA-1M 3 [+]         
1 39375U 13062A   15120.51040825 -.00000047  00000-0  10000-3 0  9999
2 39375   0.0092 194.7840 0002840 229.7001  47.3915  1.00272940  5366
